NORAD_CAT_ID,OBJECT_NAME,OBJECT_TYPE,EPOCH,MEAN_MOTION,ECCENTRICITY,INCLINATION,RA_OF_ASC_NODE,ARG_OF_PERICENTER,MEAN_ANOMALY,BSTAR,MEAN_MOTION_DOT,MEAN_MOTION_DDOT,TLE_LINE0,TLE_LINE1,TLE_LINE2,SEMIMAJOR_AXIS,PERIOD,APOGEE,PERIGEE,DECAYED
55916.0,STARLINK-5796,PAYLOAD,2024-02-26 04:22:54,14.98325465,0.0002619,70.0025,16.7101,258.8839,101.2026,0.00013275,1.491e-05,0.0,0 STARLINK-5796,1 55916U 23037C   24057.18257492  .00001491  00000-0  13275-3 0  9993,2 55916  70.0025  16.7101 0002619 258.8839 101.2026 14.98325465 52601,6950.207,96.107,573.892,570.252,0.0
55916.0,STARLINK-5796,PAYLOAD,2024-02-26 07:35:11,14.98312473,0.0001887,70.0025,16.3731,249.694,110.4016,0.00032122,3.74e-05,0.0,0 STARLINK-5796,1 55916U 23037C   24057.31610030  .00003740  00000-0  32122-3 0  9990,2 55916  70.0025  16.3731 0001887 249.6940 110.4016 14.98312473 52621,6950.247,96.108,573.424,570.801,0.0
55916.0,STARLINK-5796,PAYLOAD,2024-02-26 22:00:23,14.98329666,0.000286,70.0024,14.859,266.4971,93.5861,2.1498e-05,1.64e-06,0.0,0 STARLINK-5796,1 55916U 23037C   24057.91693536  .00000164  00000-0  21498-4 0  9990,2 55916  70.0024  14.8590 0002860 266.4971  93.5861 14.98329666 52372,6950.194,96.107,574.047,570.071,0.0
55916.0,STARLINK-5796,PAYLOAD,2024-02-27 02:48:47,14.98329446,0.0002817,70.0021,14.3535,266.9752,93.1084,-1.6655e-05,-2.92e-06,0.0,0 STARLINK-5796,1 55916U 23037C   24058.11721672 -.00000292  00000-0 -16655-4 0  9999,2 55916  70.0021  14.3535 0002817 266.9752  93.1084 14.98329446 52747,6950.195,96.107,574.017,570.102,0.0
55916.0,STARLINK-5796,PAYLOAD,2024-02-27 14:01:43,14.98333591,0.0002977,70.0014,13.1721,273.5317,86.5501,-3.1781e-05,-4.72e-06,0.0,0 STARLINK-5796,1 55916U 23037C   24058.58453326 -.00000472  00000-0 -31781-4 0  9995,2 55916  70.0014  13.1721 0002977 273.5317  86.5501 14.98333591 52477,6950.182,96.107,574.116,569.978,0.0
55916.0,STARLINK-5796,PAYLOAD,2024-02-27 22:02:24,14.98327454,0.0002828,70.0015,12.3324,264.1528,95.9309,3.1197e-05,2.79e-06,0.0,0 STARLINK-5796,1 55916U 23037C   24058.91833589  .00000279  00000-0  31197-4 0  9999,2 55916  70.0015  12.3324 0002828 264.1528  95.9309 14.98327454 52520,6950.201,96.107,574.031,570.1,0.0
55916.0,STARLINK-5796,PAYLOAD,2024-02-28 04:26:56,14.98329165,0.000283,70.0017,11.6602,264.7996,95.284,2.2736e-05,1.78e-06,0.0,0 STARLINK-5796,1 55916U 23037C   24059.18537546  .00000178  00000-0  22736-4 0  9990,2 55916  70.0017  11.6602 0002830 264.7996  95.2840 14.98329165 52907,6950.195,96.107,574.027,570.094,0.0
55916.0,STARLINK-5796,PAYLOAD,2024-02-28 14:03:45,14.98326604,0.0002811,70.0021,10.648,272.882,87.2017,-1.3324e-05,-2.52e-06,0.0,0 STARLINK-5796,1 55916U 23037C   24059.58593854 -.00000252  00000-0 -13324-4 0  9996,2 55916  70.0021  10.6480 0002811 272.8820  87.2017 14.98326604 52621,6950.203,96.107,574.022,570.115,0.0
55916.0,STARLINK-5796,PAYLOAD,2024-02-28 22:04:25,14.98327905,0.0002795,70.0012,9.8075,263.8345,96.2496,-4.1713e-06,-1.43e-06,0.0,0 STARLINK-5796,1 55916U 23037C   24059.91973794 -.00000143  00000-0 -41713-5 0  9991,2 55916  70.0012   9.8075 0002795 263.8345  96.2496 14.98327905 52675,6950.199,96.107,574.007,570.122,0.0
55916.0,STARLINK-5796,PAYLOAD,2024-02-29 04:28:57,14.98327659,0.0002829,70.0009,9.1339,264.362,95.7217,-1.0635e-05,-2.2e-06,0.0,0 STARLINK-5796,1 55916U 23037C   24060.18677879 -.00000220  00000-0 -10635-4 0  9991,2 55916  70.0009   9.1339 0002829 264.3620  95.7217 14.98327659 53051,6950.2,96.107,574.031,570.099,0.0
55916.0,STARLINK-5796,PAYLOAD,2024-02-29 14:05:45,14.983305,0.0002867,70.0013,8.1235,271.3694,88.7136,2.2957e-05,1.81e-06,0.0,0 STARLINK-5796,1 55916U 23037C   24060.58733671  .00000181  00000-0  22957-4 0  9992,2 55916  70.0013   8.1235 0002867 271.3694  88.7136 14.98330500 52770,6950.191,96.107,574.049,570.064,0.0
55916.0,STARLINK-5796,PAYLOAD,2024-02-29 22:06:26,14.98329979,0.0002967,70.0009,7.2819,270.9358,89.1461,8.3328e-05,9.01e-06,0.0,0 STARLINK-5796,1 55916U 23037C   24060.92113504  .00000901  00000-0  83328-4 0  9996,2 55916  70.0009   7.2819 0002967 270.9358  89.1461 14.98329979 52826,6950.193,96.107,574.12,569.996,0.0
55916.0,STARLINK-5796,PAYLOAD,2024-03-01 02:54:50,14.98333554,0.0003031,70.0008,6.7769,270.6713,89.4098,5.85e-05,6.05e-06,0.0,0 STARLINK-5796,1 55916U 23037C   24061.12141325  .00000605  00000-0  58500-4 0  9996,2 55916  70.0008   6.7769 0003031 270.6713  89.4098 14.98333554 53192,6950.182,96.107,574.154,569.94,0.0
55916.0,STARLINK-5796,PAYLOAD,2024-03-01 06:07:06,14.98335803,0.0003003,70.001,6.4403,270.7451,89.3364,8.3048e-05,8.98e-06,0.0,0 STARLINK-5796,1 55916U 23037C   24061.25493109  .00000898  00000-0  83048-4 0  9999,2 55916  70.0010   6.4403 0003003 270.7451  89.3364 14.98335803 52874,6950.175,96.107,574.127,569.953,0.0
55916.0,STARLINK-5796,PAYLOAD,2024-03-01 22:08:26,14.98332428,0.0002992,70.0011,4.7569,270.8359,89.2457,8.452e-05,9.16e-06,0.0,0 STARLINK-5796,1 55916U 23037C   24061.92253173  .00000916  00000-0  84520-4 0  9995,2 55916  70.0011   4.7569 0002992 270.8359  89.2457 14.98332428 52976,6950.185,96.107,574.13,569.971,0.0
55916.0,STARLINK-5796,PAYLOAD,2024-03-02 02:56:50,14.98332515,0.000301,70.0009,4.252,270.7589,89.3226,6.8242e-05,7.21e-06,0.0,0 STARLINK-5796,1 55916U 23037C   24062.12281181  .00000721  00000-0  68242-4 0  9995,2 55916  70.0009   4.2520 0003010 270.7589  89.3226 14.98332515 53345,6950.185,96.107,574.142,569.958,0.0
55916.0,STARLINK-5796,PAYLOAD,2024-03-02 06:09:06,14.9833518,0.0002959,70.001,3.9152,270.3599,89.7221,0.00017678,2.017e-05,0.0,0 STARLINK-5796,1 55916U 23037C   24062.25632702  .00002017  00000-0  17678-3 0  9994,2 55916  70.0010   3.9152 0002959 270.3599  89.7221 14.98335180 53027,6950.177,96.107,574.098,569.985,0.0
55916.0,STARLINK-5796,PAYLOAD,2024-03-02 22:10:27,14.98333673,0.0002624,70.0016,2.2324,260.7226,99.3637,1.4805e-06,-7.5e-07,0.0,0 STARLINK-5796,1 55916U 23037C   24062.92393054 -.00000075  00000-0  14805-5 0  9996,2 55916  70.0016   2.2324 0002624 260.7226  99.3637 14.98333673 53129,6950.182,96.107,573.87,570.223,0.0
55916.0,STARLINK-5796,PAYLOAD,2024-03-03 02:58:51,14.98334095,0.0002706,70.0017,1.7297,262.0436,98.0416,-6.3101e-06,-1.68e-06,0.0,0 STARLINK-5796,1 55916U 23037C   24063.12421012 -.00000168  00000-0 -63101-5 0  9992,2 55916  70.0017   1.7297 0002706 262.0436  98.0416 14.98334095 53492,6950.18,96.107,573.926,570.165,0.0
55916.0,STARLINK-5796,PAYLOAD,2024-03-03 06:11:07,14.98334075,0.0002683,70.0018,1.3931,262.3767,97.7088,-1.1279e-05,-2.28e-06,0.0,0 STARLINK-5796,1 55916U 23037C   24063.25773010 -.00000228  00000-0 -11279-4 0  9999,2 55916  70.0018   1.3931 0002683 262.3767  97.7088 14.98334075 53172,6950.18,96.107,573.91,570.181,0.0
55916.0,STARLINK-5796,PAYLOAD,2024-03-03 20:36:20,14.98329335,0.0002671,70.0021,359.8784,268.2039,91.8814,1.4983e-05,8.6e-07,0.0,0 STARLINK-5796,1 55916U 23037C   24063.85857132  .00000086  00000-0  14983-4 0  9998,2 55916  70.0021 359.8784 0002671 268.2039  91.8814 14.98329335 53262,6950.195,96.107,573.916,570.204,0.0
55916.0,STARLINK-5796,PAYLOAD,2024-03-04 04:37:00,14.98337632,0.0002448,70.0022,359.0372,255.7282,104.3605,6.7526e-05,7.13e-06,0.0,0 STARLINK-5796,1 55916U 23037C   24064.19236392  .00000713  00000-0  67526-4 0  9993,2 55916  70.0022 359.0372 0002448 255.7282 104.3605 14.98337632 53651,6950.169,96.107,573.736,570.333,0.0
55916.0,STARLINK-5796,PAYLOAD,2024-03-04 12:37:41,14.98334307,0.0002171,70.0027,358.1905,283.0124,77.0792,-5.4846e-05,-7.47e-06,0.0,0 STARLINK-5796,1 55916U 23037C   24064.52616997 -.00000747  00000-0 -54846-4 0  9993,2 55916  70.0027 358.1905 0002171 283.0124  77.0792 14.98334307 53367,6950.18,96.107,573.553,570.536,0.0
55916.0,STARLINK-5796,PAYLOAD,2024-03-04 20:38:22,14.98321571,0.0002363,70.0025,357.3548,255.0455,105.0443,-6.0628e-05,-8.16e-06,0.0,0 STARLINK-5796,1 55916U 23037C   24064.85997747 -.00000816  00000-0 -60628-4 0  9996,2 55916  70.0025 357.3548 0002363 255.0455 105.0443 14.98321571 53755,6950.219,96.108,573.726,570.442,0.0
55916.0,STARLINK-5796,PAYLOAD,2024-03-04 22:14:30,14.98318846,0.0002438,70.0024,357.1866,254.4339,105.6551,-9.1229e-05,-1.181e-05,0.0,0 STARLINK-5796,1 55916U 23037C   24064.92674005 -.00001181  00000-0 -91229-4 0  9990,2 55916  70.0024 357.1866 0002438 254.4339 105.6551 14.98318846 53423,6950.227,96.108,573.787,570.398,0.0
55916.0,STARLINK-5796,PAYLOAD,2024-03-05 04:39:02,14.98320872,0.0002653,70.0014,356.5105,264.056,96.0297,-8.3978e-05,-1.095e-05,0.0,0 STARLINK-5796,1 55916U 23037C   24065.19378032 -.00001095  00000-0 -83978-4 0  9997,2 55916  70.0014 356.5105 0002653 264.0560  96.0297 14.98320872 53469,6950.221,96.108,573.93,570.242,0.0
55916.0,STARLINK-5796,PAYLOAD,2024-03-05 20:40:22,14.98327494,0.0002749,70.001,354.8272,265.067,95.0175,5.4273e-05,5.55e-06,0.0,0 STARLINK-5796,1 55916U 23037C   24065.86137493  .00000555  00000-0  54273-4 0  9999,2 55916  70.0010 354.8272 0002749 265.0670  95.0175 14.98327494 53900,6950.201,96.107,573.976,570.155,0.0
55916.0,STARLINK-5796,PAYLOAD,2024-03-06 04:41:02,14.98334202,0.0002757,70.0011,353.9857,262.5074,97.5772,9.1586e-05,1e-05,0.0,0 STARLINK-5796,1 55916U 23037C   24066.19517039  .00001000  00000-0  91586-4 0  9998,2 55916  70.0011 353.9857 0002757 262.5074  97.5772 14.98334202 53959,6950.18,96.107,573.961,570.129,0.0
55916.0,STARLINK-5796,PAYLOAD,2024-03-06 19:06:15,14.98319956,0.0002936,70.001,352.4707,261.5785,98.5041,0.00019686,2.256e-05,0.0,0 STARLINK-5796,1 55916U 23037C   24066.79601581  .00002256  00000-0  19686-3 0  9994,2 55916  70.0010 352.4707 0002936 261.5785  98.5041 14.98319956 54043,6950.224,96.108,574.13,570.048,0.0
55916.0,STARLINK-5796,PAYLOAD,2024-03-07 12:43:44,14.98336649,0.0002682,70.0012,350.6182,263.2703,96.8151,-3.128e-05,-4.66e-06,0.0,0 STARLINK-5796,1 55916U 23037C   24067.53037338 -.00000466  00000-0 -31280-4 0  9998,2 55916  70.0012 350.6182 0002682 263.2703  96.8151 14.98336649 53814,6950.172,96.107,573.901,570.173,0.0
